[{"OBJECT_NAME":"STARLINK-32602","OBJECT_ID":"2024-225U","EPOCH":"2026-03-09T14:47:34.378368","MEAN_MOTION":14.98328644,"ECCENTRICITY":0.0002931,"INCLINATION":70.0016,"RA_OF_ASC_NODE":154.6524,"ARG_OF_PERICENTER":260.3345,"MEAN_ANOMALY":99.7483,"EPHEMERIS_TYPE":0,"CLASSIFICATION_TYPE":"U","NORAD_CAT_ID":62181,"ELEMENT_SET_NO":999,"REV_AT_EPOCH":7011,"BSTAR":0.00038981,"MEAN_MOTION_DOT":4.561e-5,"MEAN_MOTION_DDOT":0},{"OBJECT_NAME":"FENGYUN 1C DEB","OBJECT_ID":"1999-025CJB","EPOCH":"2026-03-04T10:30:16.287264","MEAN_MOTION":14.84272597,"ECCENTRICITY":0.00915644,"INCLINATION":98.0869,"RA_OF_ASC_NODE":145.0566,"ARG_OF_PERICENTER":112.3308,"MEAN_ANOMALY":248.7643,"EPHEMERIS_TYPE":0,"CLASSIFICATION_TYPE":"U","NORAD_CAT_ID":31837,"ELEMENT_SET_NO":999,"REV_AT_EPOCH":99570,"BSTAR":0.0020173845,"MEAN_MOTION_DOT":0.00018196,"MEAN_MOTION_DDOT":0}]
